STARLINK-31768          
1 59616U 24080R   26068.31126227 -.00000274  00000+0 -41970-6 0  9998
2 59616  43.0050  40.1412 0001115 276.1558  83.9167 15.27578545104474
TRANSPORTER-12 OBJECT BT
1 62674U 25009BT  26068.71416991  .00013824  00000+0  51029-3 0  9998
2 62674  97.4094 151.5992 0003682 313.5044  46.5889 15.27872239121360
